*******************************************************************************
Ephemeris / WWW_USER Fri May 15 10:28:26 2020 Pasadena, USA      / Horizons    
*******************************************************************************
Target body name: Moon (301)                      {source: DE431mx}
Center body name: Earth (399)                     {source: DE431mx}
Center-site name: (user defined site below)
*******************************************************************************
Start time      : A.D. 1500-Jan-01 00:00:00.0000 UT      
Stop  time      : A.D. 2500-Jan-01 00:00:00.0000 UT      
Step-size       : 14400 minutes
*******************************************************************************
Target pole/equ : IAU_MOON                        {East-longitude positive}
Target radii    : 1737.4 x 1737.4 x 1737.4 km     {Equator, meridian, pole}    
Center geodetic : 279.000000,29.0000000,0.0100000 {E-lon(deg),Lat(deg),Alt(km)}
Center cylindric: 279.000000,5582.84695,3073.9060 {E-lon(deg),Dxy(km),Dz(km)}
Center pole/equ : High-precision EOP model        {East-longitude positive}
Center radii    : 6378.1 x 6378.1 x 6356.8 km     {Equator, meridian, pole}    
Target primary  : Earth
Vis. interferer : MOON (R_eq= 1737.400) km        {source: DE431mx}
Rel. light bend : Sun, EARTH                      {source: DE431mx}
Rel. lght bnd GM: 1.3271E+11, 3.9860E+05 km^3/s^2                              
Atmos refraction: NO (AIRLESS)
RA format       : DEG
Time format     : CAL 
EOP file        : eop.200514.p200805                                           
EOP coverage    : DATA-BASED 1962-JAN-20 TO 2020-MAY-14. PREDICTS-> 2020-AUG-04
Units conversion: 1 au= 149597870.700 km, c= 299792.458 km/s, 1 day= 86400.0 s 
Table cut-offs 1: Elevation (-90.0deg=NO ),Airmass (>38.000=NO), Daylight (NO )
Table cut-offs 2: Solar elongation (  0.0,180.0=NO ),Local Hour Angle( 0.0=NO )
Table cut-offs 3: RA/DEC angular rate (     0.0=NO )                           
*********************************************************************************************
 Date__(UT)__HR:MN     R.A.___(ICRF)___DEC R.A._(a-appar)_DEC. Azi_(a-appr)_Elev       TDB-UT
*********************************************************************************************
$$SOE
 1928-Nov-02 00:00      98.06645  25.59449  96.96502  25.64740  41.4049 -21.4876    24.379918
 1928-Nov-12 00:00     223.19730 -15.65179 222.20108 -15.35853 264.4222 -22.6091    24.381447
 1928-Nov-22 00:00  m  350.94190 -10.11108 350.01706 -10.50339 164.3908  49.2675    24.382944
 1928-Dec-02 00:00     138.82189  20.67832 137.80967  20.97480  35.1677 -31.3796    24.384408
 1928-Dec-12 00:00     256.45169 -24.79764 255.35352 -24.70143 253.6642 -23.3308    24.385841
 1928-Dec-22 00:00  m   23.83525   6.09487  22.90757   5.73132 148.4668  63.4104    24.387242
 1929-Jan-01 00:00 A   173.19726   7.86807 172.27901   8.26071  38.9434 -44.6187    24.388611
 1929-Jan-11 00:00 A   292.59151 -26.05725 291.49246 -26.20815 249.6830 -18.4707    24.389949
 1929-Jan-21 00:00 Am   60.55492  20.72410  59.51646  20.52778 109.6904  69.4688    24.391255
 1929-Jan-31 00:00 A   203.45950  -6.92864 202.53076  -6.56523  52.8591 -56.6233    24.392530
 1929-Feb-10 00:00 N   327.93411 -18.39885 326.94596 -18.73549 254.2033 -10.3340    24.393773
 1929-Feb-20 00:00 Nm  103.19248  26.39050 102.09389  26.47856  86.6842  60.2063    24.394986
 1929-Mar-02 00:00 N   234.01055 -19.50579 232.98895 -19.27191  72.7814 -65.0107    24.396168
 1929-Mar-12 00:00 Nm    0.74389  -4.25155 359.82860  -4.64962 265.1216  -0.7908    24.397319
 1929-Mar-22 00:00 Nm  144.73009  19.41517 143.74286  19.73603  91.9685  47.5894    24.398439
 1929-Apr-01 00:00 C   267.55977 -26.42965 266.45496 -26.41037  87.3351 -70.8951    24.399528
 1929-Apr-11 00:00 Cm   34.04738  12.00902  33.08632  11.67862 277.7477  10.2659    24.400588
 1929-Apr-21 00:00 Cm  179.66169   4.72250 178.75665   5.11604 106.1505  36.1104    24.401616
 1929-May-01 00:00 C   302.84127 -25.12071 301.77638 -25.33253  78.9352 -75.6074    24.402615
 1929-May-11 00:00 *m   72.56723  24.30195  71.48364  24.18101 285.7737  23.2170    24.403584
 1929-May-21 00:00 *m  211.19221 -11.00252 210.25003 -10.66556 119.6806  25.2336    24.404523
 1929-May-31 00:00 *   336.29976 -15.72573 335.34683 -16.08557  42.2302 -73.2102    24.405431
 1929-Jun-10 00:00 *m  115.80839  25.61683 114.72484  25.78755 282.4996  35.3786    24.406311
 1929-Jun-20 00:00 *m  243.99081 -22.98025 242.94034 -22.80644 127.4782  15.0889    24.407160
 1929-Jun-30 00:00 *     7.74454  -1.07134   6.83929  -1.46150  20.3646 -60.9400    24.407981
 1929-Jul-10 00:00 *m  155.22460  15.06451 154.26970  15.42306 265.9356  40.2515    24.408771
 1929-Jul-20 00:00 *m  279.73584 -27.50012 278.63409 -27.56430 127.5763   7.7879    24.409533
 1929-Jul-30 00:00 *    40.95166  14.65969  39.97958  14.36142   8.6484 -46.2313    24.410266
 1929-Aug-09 00:00 *m  188.34860  -0.88158 187.44023  -0.49076 246.3459  35.0773    24.410970
 1929-Aug-19 00:00 *m  315.35107 -22.87185 314.33482 -23.14890 120.6743   5.9947    24.411645
 1929-Aug-29 00:00 C    80.37609  25.30930  79.28776  25.24147 356.0202 -35.6499    24.412291
 1929-Sep-08 00:00 Cm  219.55724 -16.00814 218.57972 -15.70345 231.7428  26.3030    24.412908
 1929-Sep-18 00:00 Nm  347.83782 -10.85349 346.92342 -11.23504 109.0571  10.2405    24.413498
 1929-Sep-28 00:00 N   123.82852  24.14791 122.77549  24.36524 340.7028 -34.0465    24.414059
 1929-Oct-08 00:00 Am  252.87494 -26.00606 251.78659 -25.88877 221.4602  21.1294    24.414591
 1929-Oct-18 00:00 Am   18.93478   4.88947  18.02713   4.52009  94.3253  17.0171    24.415096
 1929-Oct-28 00:00 A   162.55584  11.74539 161.62544  12.12006 324.0279 -41.4263    24.415573
 1929-Nov-07 00:00  m  288.43917 -27.76600 287.33771 -27.88903 215.5882  22.8040    24.416022
 1929-Nov-17 00:00  m   53.28236  19.68306  52.27549  19.44885  78.1141  19.6916    24.416443
 1929-Nov-27 00:00     195.84508  -4.79261 194.93199  -4.41416 304.5941 -52.0541    24.416837
 1929-Dec-07 00:00  m  322.47727 -20.74543 321.48280 -21.05626 216.0452  30.7933    24.417203
 1929-Dec-17 00:00  m   94.17153  26.95003  93.07937  26.97631  66.4267  13.5486    24.417542
 1929-Dec-27 00:00     228.56617 -19.23667 227.56119 -18.97553 280.5725 -57.8633    24.417854
 1930-Jan-06 00:00 Am  353.32710  -7.39539 352.41985  -7.78473 224.3570  42.3584    24.418139
 1930-Jan-16 00:00 Am  136.35065  21.63357 135.34975  21.91338  65.3380   0.9822    24.418397
 1930-Jan-26 00:00 A   263.93868 -27.07629 262.83751 -27.03284 263.6024 -55.4283    24.418628
 1930-Feb-05 00:00 Am   23.82305   8.67183  22.90012   8.31354 240.2823  54.6514    24.418833
 1930-Feb-15 00:00 N   172.67460   7.00688 171.77573   7.39141  74.2580 -12.2908    24.419011
 1930-Feb-25 00:00 N   300.09143 -25.72066 299.02594 -25.91547 263.0468 -49.4094    24.419163
 1930-Mar-07 00:00 Nm   58.95454  22.72931  57.91738  22.52706 259.7819  66.5662    24.419288
 1930-Mar-17 00:00 N   205.14242  -9.74671 204.22280  -9.39536  88.0307 -23.1854    24.419388
 1930-Mar-27 00:00 C   332.96382 -16.21740 332.01078 -16.56531 274.2172 -43.2170    24.419462
 1930-Apr-06 00:00 Cm  101.31011  27.83467 100.21167  27.91007 267.2370  79.0976    24.419510
 1930-Apr-16 00:00 C   238.64155 -22.88046 237.61149 -22.67756  99.9690 -32.0401    24.419532
 1930-Apr-26 00:00 C     2.73491  -1.96933   1.83589  -2.35985 290.0890 -35.9246    24.419529
 1930-May-06 00:00 *m  143.75848  19.58259 142.78156  19.89594 176.1047  80.8764    24.419501
 1930-May-16 00:00 *   274.96552 -28.11901 273.86870 -28.15057 104.0124 -39.5010    24.419448
 1930-May-26 00:00 *    33.28997  13.32439  32.34137  12.99724 303.4732 -25.6582    24.419369
 1930-Jun-05 00:00 *m  180.03298   2.80425 179.14089   3.19235 163.2994  63.2395    24.419266
 1930-Jun-15 00:00 *   310.56145 -23.86789 309.54093 -24.11783  96.7410 -43.5866    24.419137
 1930-Jun-25 00:00 *    69.40921  24.88517  68.34314  24.74639 308.5429 -13.3217    24.418985
 1930-Jul-05 00:00 *m  213.64699 -14.55072 212.70211 -14.22805 164.1176  45.3813    24.418807
 1930-Jul-15 00:00 *   342.14789 -12.36186 341.23315 -12.72873  81.4640 -41.0316    24.418606
 1930-Jul-25 00:00 *   111.53486  26.27469 110.45889  26.41622 302.8362  -3.3751    24.418380
 1930-Aug-04 00:00 *m  249.40146 -26.27588 248.33550 -26.13907 161.3610  32.3603    24.418130
 1930-Aug-14 00:00 *    11.47248   2.74076  10.58187   2.36282  65.6641 -32.7147    24.417856
 1930-Aug-24 00:00 Cm  151.69079  15.34859 150.74414  15.69079 288.4230  -0.7020    24.417558
 1930-Sep-03 00:00 Cm  287.08638 -28.36239 286.00007 -28.47490 154.6430  27.5303    24.417237
 1930-Sep-13 00:00 N    43.05298  17.62130  42.08374  17.33902  51.3309 -24.3459    24.416892
 1930-Sep-23 00:00 N   186.46868  -1.95167 185.57298  -1.56527 270.8336  -4.7324    24.416524
 1930-Oct-03 00:00 Nm  321.68392 -20.95277 320.70601 -21.25479 145.9748  31.6613    24.416133
 1930-Oct-13 00:00 A    81.22258  26.90822  80.14350  26.84789  38.0522 -22.4309    24.415718
 1930-Oct-23 00:00 A   220.25202 -18.23621 219.27675 -17.93927 254.3735  -8.9321    24.415281
 1930-Nov-02 00:00  m  351.63102  -7.65297 350.73875  -8.03364 136.0943  42.3029    24.414820
 1930-Nov-12 00:00     123.75685  24.50144 122.72403  24.71399  28.2426 -30.4812    24.414338
 1930-Nov-22 00:00     257.00780 -27.70190 255.91767 -27.61348 242.6501  -7.7469    24.413832
 1930-Dec-02 00:00  m   20.14723   7.73348  19.24659   7.37267 121.3728  54.3282    24.413304
 1930-Dec-12 00:00     162.42214  10.75196 161.51420  11.11827  25.3059 -46.4856    24.412754
 1930-Dec-22 00:00     294.79162 -26.95358 293.72142 -27.11487 239.3579  -1.1940    24.412182
 1931-Jan-01 00:00 Am   51.92838  21.41806  50.92949  21.18102  97.5918  59.8719    24.411588
 1931-Jan-11 00:00 A   196.87236  -7.27865 195.97399  -6.91047  30.6435 -64.9318    24.410972
 1931-Jan-21 00:00 Am  328.45334 -17.27039 327.50069 -17.59947 245.2246   7.2550    24.410335
